NORAD_CAT_ID,OBJECT_NAME,OBJECT_TYPE,EPOCH,MEAN_MOTION,ECCENTRICITY,INCLINATION,RA_OF_ASC_NODE,ARG_OF_PERICENTER,MEAN_ANOMALY,BSTAR,MEAN_MOTION_DOT,MEAN_MOTION_DDOT,TLE_LINE0,TLE_LINE1,TLE_LINE2,SEMIMAJOR_AXIS,PERIOD,APOGEE,PERIGEE,DECAYED
53146.0,STARLINK-4099,PAYLOAD,2023-09-21 17:04:15,15.08845145,0.000141,53.2158,254.2794,95.5361,264.5792,1.028e-05,-1.24e-06,0.0,0 STARLINK-4099,1 53146U 22083Q   23264.71129169 -.00000124  00000-0  10280-4 0  9990,2 53146  53.2158 254.2794 0001410  95.5361 264.5792 15.08845145 65358,6917.865,95.437,540.705,538.754,0.0
53146.0,STARLINK-4099,PAYLOAD,2023-09-21 23:25:49,15.08818464,0.0001398,53.2162,253.09,90.243,269.8722,0.00035127,5.304e-05,0.0,0 STARLINK-4099,1 53146U 22083Q   23264.97626252  .00005304  00000-0  35127-3 0  9993,2 53146  53.2162 253.0900 0001398  90.2430 269.8722 15.08818464 66023,6917.946,95.439,540.778,538.844,0.0
53146.0,STARLINK-4099,PAYLOAD,2023-09-22 05:47:21,15.08828406,0.0001451,53.2165,251.8987,96.8662,263.2495,0.00039454,5.995e-05,0.0,0 STARLINK-4099,1 53146U 22083Q   23265.24121883  .00005995  00000-0  39454-3 0  9997,2 53146  53.2165 251.8987 0001451  96.8662 263.2495 15.08828406 66062,6917.916,95.438,540.785,538.777,0.0
53146.0,STARLINK-4099,PAYLOAD,2023-09-23 02:27:21,15.08843606,0.0001485,53.2167,248.0329,97.1711,262.945,0.00011693,1.574e-05,0.0,0 STARLINK-4099,1 53146U 22083Q   23266.10233371  .00001574  00000-0  11693-3 0  9993,2 53146  53.2167 248.0329 0001485  97.1711 262.9450 15.08843606 66198,6917.869,95.437,540.762,538.707,0.0
53146.0,STARLINK-4099,PAYLOAD,2023-09-23 05:38:07,15.08843877,0.0001305,53.2169,247.4377,100.5104,259.6035,0.00018408,2.643e-05,0.0,0 STARLINK-4099,1 53146U 22083Q   23266.23481159  .00002643  00000-0  18408-3 0  9995,2 53146  53.2169 247.4377 0001305 100.5104 259.6035 15.08843877 65586,6917.869,95.437,540.636,538.831,0.0
53146.0,STARLINK-4099,PAYLOAD,2023-09-24 02:18:09,15.08838231,0.0001437,53.2163,243.5738,103.3731,256.7421,2.3798e-05,9.1e-07,0.0,0 STARLINK-4099,1 53146U 22083Q   23267.09593886  .00000091  00000-0  23798-4 0  9995,2 53146  53.2163 243.5738 0001437 103.3731 256.7421 15.08838231 66341,6917.886,95.438,540.745,538.757,0.0
53146.0,STARLINK-4099,PAYLOAD,2023-09-24 07:04:18,15.08840178,0.0001435,53.2168,242.6835,100.9948,259.1206,8.2857e-06,-1.56e-06,0.0,0 STARLINK-4099,1 53146U 22083Q   23267.29465796 -.00000156  00000-0  82857-5 0  9990,2 53146  53.2168 242.6835 0001435 100.9948 259.1206 15.08840178 65749,6917.88,95.438,540.738,538.752,0.0
53146.0,STARLINK-4099,PAYLOAD,2023-09-25 08:30:28,15.08847247,0.000143,53.2168,237.9239,98.3625,261.7529,9.6161e-05,1.243e-05,0.0,0 STARLINK-4099,1 53146U 22083Q   23268.35449280  .00001243  00000-0  96161-4 0  9997,2 53146  53.2168 237.9239 0001430  98.3625 261.7529 15.08847247 66530,6917.858,95.437,540.712,538.734,0.0
53146.0,STARLINK-4099,PAYLOAD,2023-09-25 14:52:00,15.0885163,0.000142,53.217,236.7344,96.2991,263.8163,9.2573e-05,1.186e-05,0.0,0 STARLINK-4099,1 53146U 22083Q   23268.61944838  .00001186  00000-0  92573-4 0  9994,2 53146  53.2170 236.7344 0001420  96.2991 263.8163 15.08851630 65941,6917.845,95.437,540.692,538.728,0.0
53146.0,STARLINK-4099,PAYLOAD,2023-09-26 03:35:05,15.08850842,0.0001374,53.2163,234.3555,88.548,271.5669,0.00020749,3.017e-05,0.0,0 STARLINK-4099,1 53146U 22083Q   23269.14936873  .00003017  00000-0  20749-3 0  9993,2 53146  53.2163 234.3555 0001374  88.5480 271.5669 15.08850842 66027,6917.847,95.437,540.663,538.762,0.0
53146.0,STARLINK-4099,PAYLOAD,2023-09-26 21:04:19,15.08858376,0.0001382,53.2159,231.0838,88.0437,272.0714,0.00011972,1.619e-05,0.0,0 STARLINK-4099,1 53146U 22083Q   23269.87799990  .00001619  00000-0  11972-3 0  9994,2 53146  53.2159 231.0838 0001382  88.0437 272.0714 15.08858376 66135,6917.824,95.436,540.645,538.733,0.0
53146.0,STARLINK-4099,PAYLOAD,2023-09-27 01:50:29,15.08839786,0.0001448,53.2159,230.1917,89.7851,270.3307,-7.4888e-05,-1.48e-05,0.0,0 STARLINK-4099,1 53146U 22083Q   23270.07673524 -.00001480  00000-0 -74888-4 0  9996,2 53146  53.2159 230.1917 0001448  89.7851 270.3307 15.08839786 66799,6917.881,95.438,540.748,538.744,0.0
53146.0,STARLINK-4099,PAYLOAD,2023-09-27 06:36:39,15.0884126,0.0001463,53.216,229.2994,101.4649,258.6507,-4.3943e-05,-9.87e-06,0.0,0 STARLINK-4099,1 53146U 22083Q   23270.27545386 -.00000987  00000-0 -43943-4 0  9991,2 53146  53.2160 229.2994 0001463 101.4649 258.6507 15.08841260 66194,6917.877,95.437,540.754,538.729,0.0
53146.0,STARLINK-4099,PAYLOAD,2023-09-27 14:33:35,15.08828609,0.0001576,53.2163,227.8104,95.1187,264.9985,-0.00026528,-4.506e-05,0.0,0 STARLINK-4099,1 53146U 22083Q   23270.60666178 -.00004506  00000-0 -26528-3 0  9991,2 53146  53.2163 227.8104 0001576  95.1187 264.9985 15.08828609 66872,6917.915,95.438,540.87,538.69,0.0
53146.0,STARLINK-4099,PAYLOAD,2023-09-28 06:27:27,15.08830425,0.0001743,53.2167,224.8351,74.9814,285.137,-3.2067e-05,-7.98e-06,0.0,0 STARLINK-4099,1 53146U 22083Q   23271.26906788 -.00000798  00000-0 -32067-4 0  9993,2 53146  53.2167 224.8351 0001743  74.9814 285.1370 15.08830425 66349,6917.91,95.438,540.98,538.569,0.0
53146.0,STARLINK-4099,PAYLOAD,2023-09-29 06:18:14,15.08849002,0.0001573,53.2168,220.3756,104.6095,255.5072,0.00036668,5.554e-05,0.0,0 STARLINK-4099,1 53146U 22083Q   23272.26266359  .00005554  00000-0  36668-3 0  9990,2 53146  53.2168 220.3756 0001573 104.6095 255.5072 15.08849002 67121,6917.853,95.437,540.806,538.63,0.0
53146.0,STARLINK-4099,PAYLOAD,2023-09-30 02:58:14,15.08859892,0.0001437,53.2169,216.5125,98.2875,261.828,0.00039103,5.944e-05,0.0,0 STARLINK-4099,1 53146U 22083Q   23273.12377774  .00005944  00000-0  39103-3 0  9990,2 53146  53.2169 216.5125 0001437  98.2875 261.8280 15.08859892 66625,6917.82,95.436,540.679,538.69,0.0
53146.0,STARLINK-4099,PAYLOAD,2023-10-01 02:49:01,15.08842121,0.0001436,53.2158,212.0499,88.8751,271.2405,2.506e-05,1.11e-06,0.0,0 STARLINK-4099,1 53146U 22083Q   23274.11738344  .00000111  00000-0  25060-4 0  9993,2 53146  53.2158 212.0499 0001436  88.8751 271.2405 15.08842121 67403,6917.874,95.437,540.732,538.745,0.0
53146.0,STARLINK-4099,PAYLOAD,2023-10-01 12:21:20,15.08839895,0.0001538,53.2161,210.2699,80.6949,279.4217,-1.4648e-05,-5.21e-06,0.0,0 STARLINK-4099,1 53146U 22083Q   23274.51482496 -.00000521  00000-0 -14648-4 0  9998,2 53146  53.2161 210.2699 0001538  80.6949 279.4217 15.08839895 66832,6917.881,95.438,540.81,538.682,0.0
53146.0,STARLINK-4099,PAYLOAD,2023-10-01 20:18:16,15.08837491,0.000147,53.2156,208.7833,100.9378,259.178,0.00026189,3.882e-05,0.0,0 STARLINK-4099,1 53146U 22083Q   23274.84602705  .00003882  00000-0  26189-3 0  9994,2 53146  53.2156 208.7833 0001470 100.9378 259.1780 15.08837491 66880,6917.888,95.438,540.77,538.736,0.0
53146.0,STARLINK-4099,PAYLOAD,2023-10-02 02:39:48,15.08853526,0.0001352,53.2158,207.5944,91.8486,268.2661,0.00028581,4.265e-05,0.0,0 STARLINK-4099,1 53146U 22083Q   23275.11097690  .00004265  00000-0  28581-3 0  9990,2 53146  53.2158 207.5944 0001352  91.8486 268.2661 15.08853526 67550,6917.839,95.437,540.639,538.769,0.0
53146.0,STARLINK-4099,PAYLOAD,2023-10-02 18:33:40,15.08845236,0.0001982,53.2173,204.6232,98.8552,261.2665,0.00015943,2.25e-05,0.0,0 STARLINK-4099,1 53146U 22083Q   23275.77338307  .00002250  00000-0  15943-3 0  9995,2 53146  53.2173 204.6232 0001982  98.8552 261.2665 15.08845236 67652,6917.864,95.437,541.101,538.358,0.0
53146.0,STARLINK-4099,PAYLOAD,2023-10-03 12:02:55,15.08832729,0.0002042,53.2157,201.35,92.2198,267.9028,-6.5352e-05,-1.328e-05,0.0,0 STARLINK-4099,1 53146U 22083Q   23276.50202890 -.00001328  00000-0 -65352-4 0  9991,2 53146  53.2157 201.3500 0002042  92.2198 267.9028 15.08832729 67769,6917.903,95.438,541.18,538.355,0.0
53146.0,STARLINK-4099,PAYLOAD,2023-10-03 23:10:37,15.08836359,0.0001513,53.2151,199.2682,103.8966,256.2194,0.00023803,3.502e-05,0.0,0 STARLINK-4099,1 53146U 22083Q   23276.96570944  .00003502  00000-0  23803-3 0  9997,2 53146  53.2151 199.2682 0001513 103.8966 256.2194 15.08836359 67200,6917.892,95.438,540.803,538.71,0.0
53146.0,STARLINK-4099,PAYLOAD,2023-10-04 03:56:46,15.08846868,0.0002138,53.2144,198.3722,88.7873,271.3364,0.00070518,0.00010955,0.0,0 STARLINK-4099,1 53146U 22083Q   23277.16443005  .00010955  00000-0  70518-3 0  9992,2 53146  53.2144 198.3722 0002138  88.7873 271.3364 15.08846868 67864,6917.859,95.437,541.203,538.245,0.0
53146.0,STARLINK-4099,PAYLOAD,2023-10-04 11:53:42,15.08849593,0.0001511,53.2153,196.8875,92.9309,267.1856,0.00069155,0.00010738,0.0,0 STARLINK-4099,1 53146U 22083Q   23277.49562730  .00010738  00000-0  69155-3 0  9999,2 53146  53.2153 196.8875 0001511  92.9309 267.1856 15.08849593 67284,6917.851,95.437,540.761,538.671,0.0
53146.0,STARLINK-4099,PAYLOAD,2023-10-04 18:15:14,15.08849784,0.0002289,53.2141,195.7,90.5882,269.5373,0.00074657,0.00011617,0.0,0 STARLINK-4099,1 53146U 22083Q   23277.76058996  .00011617  00000-0  74657-3 0  9993,2 53146  53.2141 195.7000 0002289  90.5882 269.5373 15.08849784 67958,6917.85,95.437,541.299,538.132,0.0
53146.0,STARLINK-4099,PAYLOAD,2023-10-05 03:47:33,15.08867006,0.0001608,53.2147,193.9144,93.1354,266.9822,0.0023708,0.00037673,0.0,0 STARLINK-4099,1 53146U 22083Q   23278.15802611  .00037673  00000-0  23708-2 0  9998,2 53146  53.2147 193.9144 0001608  93.1354 266.9822 15.08867006 68015,6917.798,95.436,540.775,538.55,0.0
53146.0,STARLINK-4099,PAYLOAD,2023-10-05 11:44:29,15.08855194,0.000257,53.2151,192.4272,80.9637,279.1646,0.0014486,0.00022852,0.0,0 STARLINK-4099,1 53146U 22083Q   23278.48923109  .00022852  00000-0  14486-2 0  9996,2 53146  53.2151 192.4272 0002570  80.9637 279.1646 15.08855194 67433,6917.834,95.437,541.477,537.921,0.0
53146.0,STARLINK-4099,PAYLOAD,2023-10-06 00:27:34,15.08853458,0.0001335,53.2152,190.0474,90.1136,270.0009,0.0019073,0.00030208,0.0,0 STARLINK-4099,1 53146U 22083Q   23279.01914719  .00030208  00000-0  19073-2 0  9994,2 53146  53.2152 190.0474 0001335  90.1136 270.0009 15.08853458 68140,6917.839,95.437,540.628,538.781,0.0
